NORAD_CAT_ID,OBJECT_NAME,OBJECT_TYPE,EPOCH,MEAN_MOTION,ECCENTRICITY,INCLINATION,RA_OF_ASC_NODE,ARG_OF_PERICENTER,MEAN_ANOMALY,BSTAR,MEAN_MOTION_DOT,MEAN_MOTION_DDOT,TLE_LINE0,TLE_LINE1,TLE_LINE2,SEMIMAJOR_AXIS,PERIOD,APOGEE,PERIGEE,DECAYED
50838.0,STARLINK-3322,PAYLOAD,2022-02-13 14:00:01,15.59333069,0.0001537,53.2174,13.0095,39.3749,61.6023,-0.0088904,-0.00658315,0.0,0 STARLINK-3322,1 50838U 22001AM  22044.58334491 -.00658315  00000-0 -88904-2 0  9999,2 50838  53.2174  13.0095 0001537  39.3749  61.6023 15.59333069  3709,6767.723000000001,92.347,390.628,388.548,0.0
50838.0,STARLINK-3322,PAYLOAD,2022-02-13 22:00:00,15.58866079,0.0001781,53.2176,11.3933,37.847,135.1113,-0.0090225,-0.00656482,0.0,0 STARLINK-3322,1 50838U 22001AM  22044.91667824 -.00656482  00000-0 -90225-2 0  9997,2 50838  53.2176  11.3933 0001781  37.8470 135.1113 15.58866079  7216,6769.075,92.375,392.145,389.734,0.0
50838.0,STARLINK-3322,PAYLOAD,2022-02-14 14:00:01,15.57934788,0.0001476,53.2174,8.1666,42.6026,272.6349,-0.0094166,-0.0066092,0.0,0 STARLINK-3322,1 50838U 22001AM  22045.58334491 -.00660920  00000-0 -94166-2 0  9992,2 50838  53.2174   8.1666 0001476  42.6026 272.6349 15.57934788  3703,6771.772,92.43,394.636,392.637,0.0
50838.0,STARLINK-3322,PAYLOAD,2022-02-14 20:00:01,15.57582393,0.000161,53.2173,6.9565,40.4,237.6156,-0.0094739,-0.00656531,0.0,0 STARLINK-3322,1 50838U 22001AM  22045.83334491 -.00656531  00000-0 -94739-2 0  9999,2 50838  53.2173   6.9565 0001610  40.4000 237.6156 15.57582393  7357,6772.793000000002,92.451,395.749,393.568,0.0
50838.0,STARLINK-3322,PAYLOAD,2022-02-15 14:00:01,15.56431201,0.0001827,53.217,3.3342,39.224,125.2834,-0.00773,-0.00521807,0.0,0 STARLINK-3322,1 50838U 22001AM  22046.58334491 -.00521807  00000-0 -77300-2 0  9994,2 50838  53.2170   3.3342 0001827  39.2240 125.2834 15.56431201  3665,6776.132,92.519,399.235,396.759,0.0
50838.0,STARLINK-3322,PAYLOAD,2022-02-15 22:00:01,15.56066699,0.0001609,53.2175,1.7247,46.3462,186.7886,-0.010025,-0.00656339,0.0,0 STARLINK-3322,1 50838U 22001AM  22046.91668981 -.00656339  00000-0 -10025-1 0  9994,2 50838  53.2175   1.7247 0001609  46.3462 186.7886 15.56066699  7522,6777.191,92.541,400.146,397.965,0.0
50838.0,STARLINK-3322,PAYLOAD,2022-02-16 14:00:01,15.55134225,0.0001431999999999,53.2176,358.5112,41.7309,326.8911,-0.010415,-0.00658444,0.0,0 STARLINK-3322,1 50838U 22001AM  22047.58334491 -.00658444  00000-0 -10415-1 0  9996,2 50838  53.2176 358.5112 0001432  41.7309 326.8911 15.55134225  3690,6779.899,92.597,402.735,400.794,0.0
50838.0,STARLINK-3322,PAYLOAD,2022-02-16 22:00:00,15.5457049,0.0001538,53.2171,356.9057,34.762,40.8452,-0.0083558,-0.00526123,0.0,0 STARLINK-3322,1 50838U 22001AM  22047.91667824 -.00526123  00000-0 -83558-2 0  9999,2 50838  53.2171 356.9057 0001538  34.7620  40.8452 15.54570490  7683,6781.538000000001,92.63,404.446,402.36,0.0
50838.0,STARLINK-3322,PAYLOAD,2022-02-17 06:00:00,15.54087841,0.0001745,53.2173,355.3038,37.1919,104.7971,-0.0081289,-0.00504254,0.0,0 STARLINK-3322,1 50838U 22001AM  22048.25001157 -.00504254  00000-0 -81289-2 0  9998,2 50838  53.2173 355.3038 0001745  37.1919 104.7971 15.54087841  7730,6782.941999999999,92.659,405.991,403.624,0.0
50838.0,STARLINK-3322,PAYLOAD,2022-02-17 14:00:01,15.53655522,0.0001667,53.2172,353.6992,35.4817,172.303,-0.0090506,-0.00549449,0.0,0 STARLINK-3322,1 50838U 22001AM  22048.58334491 -.00549449  00000-0 -90506-2 0  9991,2 50838  53.2172 353.6992 0001667  35.4817 172.3030 15.53655522  7788,6784.201,92.685,407.197,404.935,0.0
50838.0,STARLINK-3322,PAYLOAD,2022-02-17 22:00:00,15.53267567,0.0001644,53.2176,352.0968,41.1093,231.8893,-0.011123,-0.00656748,0.0,0 STARLINK-3322,1 50838U 22001AM  22048.91667824 -.00656748  00000-0 -11123-1 0  9995,2 50838  53.2176 352.0968 0001644  41.1093 231.8893 15.53267567  7835,6785.33,92.708,408.311,406.08,0.0
50838.0,STARLINK-3322,PAYLOAD,2022-02-18 14:00:01,15.52333596,0.0001361999999999,53.2175,348.8965,44.4565,357.3671,-0.011493,-0.0065595,0.0,0 STARLINK-3322,1 50838U 22001AM  22049.58334491 -.00655950  00000-0 -11493-1 0  9994,2 50838  53.2175 348.8965 0001362  44.4565 357.3671 15.52333596  3706,6788.052,92.764,410.841,408.992,0.0
50838.0,STARLINK-3322,PAYLOAD,2022-02-18 20:00:01,15.51983075,0.0001595,53.2175,347.69699999999995,37.3552,322.1995,-0.011604,-0.00654127,0.0,0 STARLINK-3322,1 50838U 22001AM  22049.83334491 -.00654127  00000-0 -11604-1 0  9991,2 50838  53.2175 347.6970 0001595  37.3552 322.1995 15.51983075  3671,6789.074000000001,92.785,412.022,409.856,0.0
50838.0,STARLINK-3322,PAYLOAD,2022-02-19 06:00:00,15.51257571,0.0001710999999999,53.2172,345.7028,46.1368,122.3456,-0.0083055,-0.00467129,0.0,0 STARLINK-3322,1 50838U 22001AM  22050.25001157 -.00467129  00000-0 -83055-2 0  9993,2 50838  53.2172 345.7028 0001711  46.1368 122.3456 15.51257571  8047,6791.19,92.828,414.217,411.893,0.0
50838.0,STARLINK-3322,PAYLOAD,2022-02-19 12:00:02,15.51051362,0.000164,53.2174,344.5036,39.612,85.7477,-0.012055,-0.00656897,0.0,0 STARLINK-3322,1 50838U 22001AM  22050.50002315 -.00656897  00000-0 -12055-1 0  9991,2 50838  53.2174 344.5036 0001640  39.6120  85.7477 15.51051362  8088,6791.792,92.84,414.771,412.543,0.0
50838.0,STARLINK-3322,PAYLOAD,2022-02-19 14:00:01,15.50933893,0.0001574,53.2176,344.1041,45.4281,185.4274,-0.012074,-0.00655288,0.0,0 STARLINK-3322,1 50838U 22001AM  22050.58334491 -.00655288  00000-0 -12074-1 0  9996,2 50838  53.2176 344.1041 0001574  45.4281 185.4274 15.50933893  3682,6792.135,92.847,415.069,412.931,0.0
50838.0,STARLINK-3322,PAYLOAD,2022-02-19 20:00:01,15.50584341,0.0001766,53.2177,342.9075,40.9064,146.4182,-0.01222,-0.00655016,0.0,0 STARLINK-3322,1 50838U 22001AM  22050.83334491 -.00655016  00000-0 -12220-1 0  9996,2 50838  53.2177 342.9075 0001766  40.9064 146.4182 15.50584341  3706,6793.156,92.868,416.221,413.821,0.0
50838.0,STARLINK-3322,PAYLOAD,2022-02-20 14:00:01,15.49517077,0.000168,53.2174,339.3223,33.3609,21.4851,-0.011983,-0.00621036,0.0,0 STARLINK-3322,1 50838U 22001AM  22051.58334491 -.00621036  00000-0 -11983-1 0  9999,2 50838  53.2174 339.3223 0001680  33.3609  21.4851 15.49517077  8254,6796.275,92.932,419.282,416.99800000000016,0.0
50838.0,STARLINK-3322,PAYLOAD,2022-02-20 22:00:00,15.48940851,0.0001703,53.2172,337.731,38.7328,76.3386,0.00020048,0.00010575,0.0,0 STARLINK-3322,1 50838U 22001AM  22051.91667824  .00010575  00000-0  20048-3 0  9997,2 50838  53.2172 337.7310 0001703  38.7328  76.3386 15.48940851  8301,6797.96,92.967,420.983,418.668,0.0
50838.0,STARLINK-3322,PAYLOAD,2022-02-21 06:00:00,15.48933506,0.0001712,53.2145,336.1447,43.3451,131.5681,0.0020551,0.00114008,0.0,0 STARLINK-3322,1 50838U 22001AM  22052.25001157  .00114008  00000-0  20551-2 0  9990,2 50838  53.2145 336.1447 0001712  43.3451 131.5681 15.48933506  8350,6797.982,92.967,421.011,418.6830000000001,0.0
50838.0,STARLINK-3322,PAYLOAD,2022-02-21 22:00:00,15.49086421,0.0001606,53.2144,332.9616,51.1133,243.517,0.00095652,0.00052691,0.0,0 STARLINK-3322,1 50838U 22001AM  22052.91667824  .00052691  00000-0  95652-3 0  9996,2 50838  53.2144 332.9616 0001606  51.1133 243.5170 15.49086421  3658,6797.534000000002,92.958,420.491,418.3080000000001,0.0
50838.0,STARLINK-3322,PAYLOAD,2022-02-22 04:00:00,15.49109839,0.0001698,53.2146,331.7695,46.1682,203.4406,0.00092573,0.00051012,0.0,0 STARLINK-3322,1 50838U 22001AM  22053.16667824  .00051012  00000-0  92573-3 0  9999,2 50838  53.2146 331.7695 0001698  46.1682 203.4406 15.49109839  8491,6797.465999999999,92.957,420.485,418.177,0.0
50838.0,STARLINK-3322,PAYLOAD,2022-02-22 14:00:01,15.49496311,0.0001460999999999,53.2162,329.7757,36.0196,18.5728,-0.027877,-0.01399487,0.0,0 STARLINK-3322,1 50838U 22001AM  22053.58334491 -.01399487  00000-0 -27877-1 0  9993,2 50838  53.2162 329.7757 0001461  36.0196  18.5728 15.49496311  8565,6796.3359999999975,92.933,419.193,417.208,0.0
50838.0,STARLINK-3322,PAYLOAD,2022-02-22 22:00:00,15.48226528,0.0001555,53.2172,328.1838,36.7867,77.60600000000002,0.0089177,0.00509623,0.0,0 STARLINK-3322,1 50838U 22001AM  22053.91667824  .00509623  00000-0  89177-2 0  9993,2 50838  53.2172 328.1838 0001555  36.7867  77.6060 15.48226528  8616,6800.051,93.01,422.973,420.859,0.0
50838.0,STARLINK-3322,PAYLOAD,2022-02-23 06:00:00,15.48598077,0.0001473,53.2173,326.5962,50.2249,123.3108,-0.013011,-0.00650265,0.0,0 STARLINK-3322,1 50838U 22001AM  22054.25001157 -.00650265  00000-0 -13011-1 0  9996,2 50838  53.2173 326.5962 0001473  50.2249 123.3108 15.48598077  8669,6798.9630000000025,92.987,421.83,419.827,0.0
50838.0,STARLINK-3322,PAYLOAD,2022-02-23 14:00:01,15.48132841,0.0001673,53.2174,325.0046,41.1917,191.3184,-0.013265,-0.00652073,0.0,0 STARLINK-3322,1 50838U 22001AM  22054.58334491 -.00652073  00000-0 -13265-1 0  9992,2 50838  53.2174 325.0046 0001673  41.1917 191.3184 15.48132841  8718,6800.325,93.015,423.328,421.05300000000005,0.0
50838.0,STARLINK-3322,PAYLOAD,2022-02-23 22:00:00,15.47667756,0.0001715,53.2176,323.4173,38.593,252.4415,-0.013541,-0.00654657,0.0,0 STARLINK-3322,1 50838U 22001AM  22054.91667824 -.00654657  00000-0 -13541-1 0  9995,2 50838  53.2176 323.4173 0001715  38.5930 252.4415 15.47667756  3702,6801.688,93.043,424.719,422.386,0.0
50838.0,STARLINK-3322,PAYLOAD,2022-02-24 14:00:01,15.46733081,0.0001514,53.2174,320.2426,37.4998,8.9053,-0.013943,-0.00652598,0.0,0 STARLINK-3322,1 50838U 22001AM  22055.58334491 -.00652598  00000-0 -13943-1 0  9998,2 50838  53.2174 320.2426 0001514  37.4998   8.9053 15.46733081  3677,6804.428000000001,93.099,427.323,425.262,0.0
50838.0,STARLINK-3322,PAYLOAD,2022-02-24 22:00:00,15.46267727,0.0001918,53.2175,318.6589,31.2843,71.9632,-0.014214,-0.0065452,0.0,0 STARLINK-3322,1 50838U 22001AM  22055.91667824 -.00654520  00000-0 -14214-1 0  9993,2 50838  53.2175 318.6589 0001918  31.2843  71.9632 15.46267727  3670,6805.793000000002,93.127,428.963,426.352,0.0
